{
  "links" : {
    "next" : "https://api.nasa.gov/neo/rest/v1/feed?start_date=2010-02-16&end_date=2010-02-16&detailed=true&api_key=t0TVs3DtDT2H8Oy2Zy8m2eVrNsAVKAexjcZXUckd",
    "prev" : "https://api.nasa.gov/neo/rest/v1/feed?start_date=2010-02-14&end_date=2010-02-14&detailed=true&api_key=t0TVs3DtDT2H8Oy2Zy8m2eVrNsAVKAexjcZXUckd",
    "self" : "https://api.nasa.gov/neo/rest/v1/feed?start_date=2010-02-15&end_date=2010-02-15&detailed=true&api_key=t0TVs3DtDT2H8Oy2Zy8m2eVrNsAVKAexjcZXUckd"
  },
  "element_count" : 11,
  "near_earth_objects" : {
    "2010-02-15" : [ {
      "links" : {
        "self" : "https://api.nasa.gov/neo/rest/v1/neo/3467750?api_key=t0TVs3DtDT2H8Oy2Zy8m2eVrNsAVKAexjcZXUckd"
      },
      "neo_reference_id" : "3467750",
      "name" : "(2009 SO98)",
      "nasa_jpl_url" : "http://ssd.jpl.nasa.gov/sbdb.cgi?sstr=3467750",
      "absolute_magnitude_h" : 24.3,
      "estimated_diameter" : {
        "kilometers" : {
          "estimated_diameter_min" : 0.0366906138,
          "estimated_diameter_max" : 0.0820427065
        },
        "meters" : {
          "estimated_diameter_min" : 36.6906137531,
          "estimated_diameter_max" : 82.0427064882
        },
        "miles" : {
          "estimated_diameter_min" : 0.0227984834,
          "estimated_diameter_max" : 0.0509789586
        },
        "feet" : {
          "estimated_diameter_min" : 120.3760332259,
          "estimated_diameter_max" : 269.1689931548
        }
      },
      "is_potentially_hazardous_asteroid" : false,
      "close_approach_data" : [ {
        "close_approach_date" : "2010-02-15",
        "epoch_date_close_approach" : 1266220800000,
        "relative_velocity" : {
          "kilometers_per_second" : "9.5354013927",
          "kilometers_per_hour" : "34327.4450136074",
          "miles_per_hour" : "21329.7393752607"
        },
        "miss_distance" : {
          "astronomical" : "0.3099548349",
          "lunar" : "120.5724258423",
          "kilometers" : "46368580",
          "miles" : "28812100"
        },
        "orbiting_body" : "Earth"
      } ],
      "orbital_data" : {
        "orbit_id" : "12",
        "orbit_determination_date" : "2017-04-06 08:59:52",
        "orbit_uncertainty" : "7",
        "minimum_orbit_intersection" : ".031401",
        "jupiter_tisserand_invariant" : "5.169",
        "epoch_osculation" : "2458000.5",
        "eccentricity" : ".1886298130222237",
        "semi_major_axis" : "1.219403013545646",
        "inclination" : "18.46385599848217",
        "ascending_node_longitude" : "5.011575187270418",
        "orbital_period" : "491.8348777222884",
        "perihelion_distance" : ".9893872511017949",
        "perihelion_argument" : "43.63469376311264",
        "aphelion_distance" : "1.449418775989498",
        "perihelion_time" : "2458093.105377335677",
        "mean_anomaly" : "292.2172189267395",
        "mean_motion" : ".7319529710198223",
        "equinox" : "J2000"
      }
    }, {
      "links" : {
        "self" : "https://api.nasa.gov/neo/rest/v1/neo/3508162?api_key=t0TVs3DtDT2H8Oy2Zy8m2eVrNsAVKAexjcZXUckd"
      },
      "neo_reference_id" : "3508162",
      "name" : "(2010 DM21)",
      "nasa_jpl_url" : "http://ssd.jpl.nasa.gov/sbdb.cgi?sstr=3508162",
      "absolute_magnitude_h" : 20.2,
      "estimated_diameter" : {
        "kilometers" : {
          "estimated_diameter_min" : 0.2424124811,
          "estimated_diameter_max" : 0.5420507863
        },
        "meters" : {
          "estimated_diameter_min" : 242.4124811008,
          "estimated_diameter_max" : 542.0507863358
        },
        "miles" : {
          "estimated_diameter_min" : 0.1506280858,
          "estimated_diameter_max" : 0.3368146392
        },
        "feet" : {
          "estimated_diameter_min" : 795.3165644948,
          "estimated_diameter_max" : 1778.3819018419
        }
      },
      "is_potentially_hazardous_asteroid" : false,
      "close_approach_data" : [ {
        "close_approach_date" : "2010-02-15",
        "epoch_date_close_approach" : 1266220800000,
        "relative_velocity" : {
          "kilometers_per_second" : "22.6400394526",
          "kilometers_per_hour" : "81504.1420294709",
          "miles_per_hour" : "50643.5042515898"
        },
        "miss_distance" : {
          "astronomical" : "0.4625461517",
          "lunar" : "179.9304504395",
          "kilometers" : "69195920",
          "miles" : "42996352"
        },
        "orbiting_body" : "Earth"
      } ],
      "orbital_data" : {
        "orbit_id" : "25",
        "orbit_determination_date" : "2017-04-06 08:58:15",
        "orbit_uncertainty" : "0",
        "minimum_orbit_intersection" : ".259792",
        "jupiter_tisserand_invariant" : "2.862",
        "epoch_osculation" : "2458000.5",
        "eccentricity" : ".6565518705485465",
        "semi_major_axis" : "2.862057954896135",
        "inclination" : "21.14951878812555",
        "ascending_node_longitude" : "178.0382040579171",
        "orbital_period" : "1768.544786896633",
        "perihelion_distance" : ".9829684509907302",
        "perihelion_argument" : "263.1894401211597",
        "aphelion_distance" : "4.74114745880154",
        "perihelion_time" : "2458745.432256235139",
        "mean_anomaly" : "208.3636862172808",
        "mean_motion" : ".2035571859232995",
        "equinox" : "J2000"
      }
    }, {
      "links" : {
        "self" : "https://api.nasa.gov/neo/rest/v1/neo/3691712?api_key=t0TVs3DtDT2H8Oy2Zy8m2eVrNsAVKAexjcZXUckd"
      },
      "neo_reference_id" : "3691712",
      "name" : "(2014 SD304)",
      "nasa_jpl_url" : "http://ssd.jpl.nasa.gov/sbdb.cgi?sstr=3691712",
      "absolute_magnitude_h" : 25.0,
      "estimated_diameter" : {
        "kilometers" : {
          "estimated_diameter_min" : 0.02658,
          "estimated_diameter_max" : 0.0594346868
        },
        "meters" : {
          "estimated_diameter_min" : 26.58,
          "estimated_diameter_max" : 59.4346868419
        },
        "miles" : {
          "estimated_diameter_min" : 0.0165160412,
          "estimated_diameter_max" : 0.0369309908
        },
        "feet" : {
          "estimated_diameter_min" : 87.2047272,
          "estimated_diameter_max" : 194.9956979785
        }
      },
      "is_potentially_hazardous_asteroid" : false,
      "close_approach_data" : [ {
        "close_approach_date" : "2010-02-15",
        "epoch_date_close_approach" : 1266220800000,
        "relative_velocity" : {
          "kilometers_per_second" : "4.2179620853",
          "kilometers_per_hour" : "15184.6635071361",
          "miles_per_hour" : "9435.1593886424"
        },
        "miss_distance" : {
          "astronomical" : "0.2473264304",
          "lunar" : "96.2099838257",
          "kilometers" : "36999508",
          "miles" : "22990428"
        },
        "orbiting_body" : "Earth"
      } ],
      "orbital_data" : {
        "orbit_id" : "16",
        "orbit_determination_date" : "2017-04-06 08:38:19",
        "orbit_uncertainty" : "4",
        "minimum_orbit_intersection" : ".0448509",
        "jupiter_tisserand_invariant" : "5.397",
        "epoch_osculation" : "2458000.5",
        "eccentricity" : ".1084151637830949",
        "semi_major_axis" : "1.167829548918546",
        "inclination" : "2.294234819308754",
        "ascending_node_longitude" : "7.6341397453128",
        "orbital_period" : "460.9646442514971",
        "perihelion_distance" : "1.041219117101804",
        "perihelion_argument" : "19.27899904590315",
        "aphelion_distance" : "1.294439980735288",
        "perihelion_time" : "2457870.113749996034",
        "mean_anomaly" : "101.827874625062",
        "mean_motion" : ".7809709583791595",
        "equinox" : "J2000"
      }
    } ]
  }
}